OBJECT_NAME,OBJECT_ID,EPOCH,MEAN_MOTION,ECCENTRICITY,INCLINATION,RA_OF_ASC_NODE,ARG_OF_PERICENTER,MEAN_ANOMALY,EPHEMERIS_TYPE,CLASSIFICATION_TYPE,NORAD_CAT_ID,ELEMENT_SET_NO,REV_AT_EPOCH,BSTAR,MEAN_MOTION_DOT,MEAN_MOTION_DDOT
CUTE-1 (CO-55),2003-031E,2026-06-14T12:11:52.449216,14.24334231,.00093508,98.6736,174.1008,185.7557,174.3516,0,U,27844,999,19129,.12809908E-3,.252E-5,0
CUBESAT XI-IV (CO-57),2003-031J,2026-06-14T06:49:41.657088,14.23619426,.0008829,98.6766,173.5948,205.9293,154.1445,0,U,27848,999,19096,.11362E-3,.215E-5,0
CUBESAT XI-V,2005-043F,2026-06-14T09:54:39.589344,14.72624914,.00134773,98.2981,320.9765,209.8611,150.1828,0,U,28895,999,10134,.20872086E-3,.1277E-4,0
CUTE-1.7+APD II (CO-65),2008-021C,2026-06-14T14:19:52.059648,15.09431607,.00101051,97.8270,146.9618,47.3580,312.8498,0,U,32785,999,98480,.27343778E-3,.4312E-4,0
CANX-2,2008-021H,2026-06-14T11:55:34.999104,15.05597055,.00114818,97.8624,145.2217,58.4901,301.7445,0,U,32790,999,98440,.30314704E-3,.4312E-4,0
SEEDS II (CO-66),2008-021J,2026-06-14T12:34:45.861024,15.32671054,.00014625,97.7508,163.2945,13.0182,347.1096,0,U,32791,999,98688,.54219861E-3,.17043E-3,0
SWISSCUBE,2009-051B,2026-06-14T05:26:27.523680,14.62476649,.0005786,98.4040,73.0633,213.5244,146.5592,0,U,35932,999,88872,.18634E-3,.895E-5,0
BEESAT-1,2009-051C,2026-06-14T13:50:41.478144,14.61716764,.00040894,98.3967,73.0606,227.0338,133.0520,0,U,35933,999,88880,.15709028E-3,.734E-5,0
ITUPSAT1,2009-051E,2026-06-14T05:20:59.273664,14.60436749,.0006164,98.4052,71.8963,244.9503,115.1057,0,U,35935,999,88830,.15098E-3,.683E-5,0
TISAT 1,2010-035E,2026-06-14T13:39:41.923872,15.31621496,.00010724,98.0712,111.8862,170.4238,189.7022,0,U,36799,999,86730,.60503888E-3,.18412E-3,0
AEROCUBE 4.5A,2012-048K,2026-06-14T00:38:56.745024,15.93706393,.00197888,64.6249,38.4390,221.2160,138.7509,0,U,38767,999,37215,.12066073E-2,.447572E-2,.86007326E-4
STRAND-1,2013-009E,2026-06-14T11:31:12.081216,14.37161905,.0007605,98.3921,345.7811,234.4727,125.5751,0,U,39090,999,69667,.95730291E-4,.242E-5,0
BRITE-AUSTRIA,2013-009F,2026-06-14T11:48:03.543552,14.36541132,.00090575,98.3993,344.9942,245.5657,114.4585,0,U,39091,999,69666,.65712853E-4,.15E-5,0
NEE-01 PEGASO,2013-018B,2026-06-14T07:37:55.184448,14.93647786,.00128351,98.1215,309.3736,168.5620,191.5892,0,U,39151,999,71027,.20906406E-3,.215E-4,0
POPACS 2,2013-055E,2026-06-14T05:22:24.873600,14.91145737,.04168759,80.9900,147.5841,203.2966,154.8876,0,U,39269,999,66277,.23173423E-3,.13658E-3,0
POPACS 3,2013-055F,2026-06-14T10:32:58.097184,14.56079271,.0552393,81.0022,232.1657,78.3550,287.9078,0,U,39270,999,63815,.22441449E-3,.9551E-4,0
ZACUBE-1 (TSHEPISOSAT),2013-066B,2026-06-14T11:23:11.253120,15.01175277,.00405094,97.8083,127.7968,257.1667,102.5029,0,U,39417,999,68032,.25183806E-3,.3221E-4,0
WNISAT-1,2013-066H,2026-06-14T09:32:17.437920,14.58058021,.01618517,97.7198,314.7518,240.4432,118.0552,0,U,39423,999,66632,.14166835E-3,.729E-5,0
TRITON-1,2013-066M,2026-06-14T14:15:52.629696,14.81700245,.008838,97.8256,75.4604,242.4889,116.7322,0,U,39427,999,67370,.26897151E-3,.2208E-4,0
GOMX-1,2013-066Q,2026-06-14T14:21:42.691392,14.69453911,.01302094,97.6484,6.2252,85.7861,275.8214,0,U,39430,999,66953,.3787524E-3,.2505E-4,0
CUBEBUG-2 (LO-74),2013-066AA,2026-06-14T14:01:56.957664,14.93741894,.00585759,97.8903,114.5518,37.4286,323.0990,0,U,39440,999,67660,.38757348E-3,.4184E-4,0
NEE-02 KRYSAOR,2013-066AB,2026-06-14T14:01:13.691136,14.86608022,.00676998,97.8892,104.8174,78.5405,282.3403,0,U,39441,999,67581,.25762509E-3,.2324E-4,0
FUNCUBE-1 (AO-73),2013-066AE,2026-06-14T11:18:34.873344,15.09460207,.00354108,97.8269,136.8603,210.5774,149.3391,0,U,39444,999,67925,.42768537E-3,.688E-4,0
UWE-3,2013-066AG,2026-06-14T09:48:00.988128,14.97004771,.00480238,97.8691,121.4633,330.3951,29.4552,0,U,39446,999,67716,.36060995E-3,.4185E-4,0
BRITE-CA1 (TORONTO),2014-033L,2026-06-14T07:40:48.178848,14.72673070,.00772746,97.9735,294.3008,286.3637,72.9085,0,U,40020,999,64179,.10219606E-3,.628E-5,0
DUCHIFAT-1,2014-033M,2026-06-14T03:26:03.729408,15.64039026,.00034173,98.0474,223.8762,119.3968,240.7631,0,U,40021,999,65527,.11822122E-2,.112865E-2,0
NANOSATC-BR1,2014-033Q,2026-06-14T14:12:12.655296,15.31384789,.00041799,98.0719,197.7493,169.8700,190.2624,0,U,40024,999,65358,.52029887E-3,.15703E-3,0
QB50P1,2014-033R,2026-06-14T13:54:46.444608,15.18225531,.00076155,98.0959,176.5426,225.5920,134.4689,0,U,40025,999,65263,.39300771E-3,.7974E-4,0
QB50P2,2014-033Y,2026-06-14T12:35:14.411904,15.15128687,.00077441,98.0744,162.2389,171.6333,188.5028,0,U,40032,999,65226,.34335895E-3,.6365E-4,0
PERSEUS-M2,2014-033AD,2026-06-14T15:42:23.576256,14.95501872,.00110052,97.9955,116.1434,313.3740,46.6563,0,U,40037,999,65040,.12212611E-3,.1292E-4,0
